{"fetched_at":"2026-07-23T17:55:13.276Z","source":"https://celestrak.org/NORAD/elements/gp.php?GROUP=spire&FORMAT=JSON","constellation":"spire","records":[{"OBJECT_NAME":"LEMUR-2-HUBBLE-4","OBJECT_ID":"2025-135AP","EPOCH":"2026-07-23T02:42:39.120192","CLASSIFICATION_TYPE":"U","MEAN_MOTION":14.93700722,"ECCENTRICITY":0.00032479,"INCLINATION":97.7722,"RA_OF_ASC_NODE":317.6059,"ARG_OF_PERICENTER":143.9745,"MEAN_ANOMALY":216.1695,"EPHEMERIS_TYPE":0,"NORAD_CAT_ID":64565,"ELEMENT_SET_NO":999,"REV_AT_EPOCH":5923,"BSTAR":0.00012226375,"MEAN_MOTION_DOT":0.00001237,"MEAN_MOTION_DDOT":0},{"OBJECT_NAME":"LEMUR-2-SEJONG-2","OBJECT_ID":"2025-135BL","EPOCH":"2026-07-23T06:28:17.798880","CLASSIFICATION_TYPE":"U","MEAN_MOTION":14.96966207,"ECCENTRICITY":0.00044537,"INCLINATION":97.7712,"RA_OF_ASC_NODE":319.0542,"ARG_OF_PERICENTER":182.2247,"MEAN_ANOMALY":177.8956,"EPHEMERIS_TYPE":0,"NORAD_CAT_ID":64586,"ELEMENT_SET_NO":999,"REV_AT_EPOCH":5934,"BSTAR":0.00051446288,"MEAN_MOTION_DOT":0.00005859,"MEAN_MOTION_DDOT":0},{"OBJECT_NAME":"LEMUR-2-HUBBLE-5","OBJECT_ID":"2025-135BT","EPOCH":"2026-07-23T04:27:47.391552","CLASSIFICATION_TYPE":"U","MEAN_MOTION":14.94228388,"ECCENTRICITY":0.00049685,"INCLINATION":97.7742,"RA_OF_ASC_NODE":318.3557,"ARG_OF_PERICENTER":203.937,"MEAN_ANOMALY":156.162,"EPHEMERIS_TYPE":0,"NORAD_CAT_ID":64840,"ELEMENT_SET_NO":999,"REV_AT_EPOCH":5928,"BSTAR":0.00013842244,"MEAN_MOTION_DOT":0.00001427,"MEAN_MOTION_DDOT":0},{"OBJECT_NAME":"LEMUR-2-KARENDARRELL","OBJECT_ID":"2025-135BU","EPOCH":"2026-07-22T19:09:49.865184","CLASSIFICATION_TYPE":"U","MEAN_MOTION":15.00577316,"ECCENTRICITY":0.0013015,"INCLINATION":97.7721,"RA_OF_ASC_NODE":319.9655,"ARG_OF_PERICENTER":81.7245,"MEAN_ANOMALY":278.5453,"EPHEMERIS_TYPE":0,"NORAD_CAT_ID":64841,"ELEMENT_SET_NO":999,"REV_AT_EPOCH":5935,"BSTAR":0.00063228157,"MEAN_MOTION_DOT":0.0000794,"MEAN_MOTION_DDOT":0},{"OBJECT_NAME":"LEMUR-2-LUCILLE-ROSE","OBJECT_ID":"2025-135BV","EPOCH":"2026-07-22T18:31:43.909536","CLASSIFICATION_TYPE":"U","MEAN_MOTION":15.00558075,"ECCENTRICITY":0.00155817,"INCLINATION":97.7688,"RA_OF_ASC_NODE":319.9724,"ARG_OF_PERICENTER":166.457,"MEAN_ANOMALY":193.7074,"EPHEMERIS_TYPE":0,"NORAD_CAT_ID":65403,"ELEMENT_SET_NO":999,"REV_AT_EPOCH":5397,"BSTAR":0.00060148358,"MEAN_MOTION_DOT":0.00007551,"MEAN_MOTION_DDOT":0},{"OBJECT_NAME":"LEMUR-2-AFFIE-WAUWIE","OBJECT_ID":"2025-248C","EPOCH":"2026-07-23T05:06:26.155008","CLASSIFICATION_TYPE":"U","MEAN_MOTION":15.28503726,"ECCENTRICITY":0.00093333,"INCLINATION":45.3913,"RA_OF_ASC_NODE":279.5994,"ARG_OF_PERICENTER":293.1633,"MEAN_ANOMALY":66.8272,"EPHEMERIS_TYPE":0,"NORAD_CAT_ID":66295,"ELEMENT_SET_NO":999,"REV_AT_EPOCH":4010,"BSTAR":0.00074289393,"MEAN_MOTION_DOT":0.00020771,"MEAN_MOTION_DDOT":0},{"OBJECT_NAME":"OTTER SDM","OBJECT_ID":"2025-276N","EPOCH":"2026-07-23T04:39:36.459072","CLASSIFICATION_TYPE":"U","MEAN_MOTION":15.20124446,"ECCENTRICITY":0.00048664,"INCLINATION":97.4194,"RA_OF_ASC_NODE":277.0787,"ARG_OF_PERICENTER":218.2161,"MEAN_ANOMALY":141.873,"EPHEMERIS_TYPE":0,"NORAD_CAT_ID":66678,"ELEMENT_SET_NO":999,"REV_AT_EPOCH":3588,"BSTAR":0.00028314695,"MEAN_MOTION_DOT":0.00006055,"MEAN_MOTION_DDOT":0},{"OBJECT_NAME":"LEMUR-2-STAS-GORBUK","OBJECT_ID":"2025-276W","EPOCH":"2026-07-23T03:38:41.930016","CLASSIFICATION_TYPE":"U","MEAN_MOTION":15.19715909,"ECCENTRICITY":0.00042498,"INCLINATION":97.4227,"RA_OF_ASC_NODE":277.0873,"ARG_OF_PERICENTER":212.6305,"MEAN_ANOMALY":147.4668,"EPHEMERIS_TYPE":0,"NORAD_CAT_ID":66686,"ELEMENT_SET_NO":999,"REV_AT_EPOCH":3587,"BSTAR":0.00026035118,"MEAN_MOTION_DOT":0.00005495,"MEAN_MOTION_DDOT":0},{"OBJECT_NAME":"LEMUR-2-TEODOR","OBJECT_ID":"2025-276DG","EPOCH":"2026-07-23T03:53:05.443584","CLASSIFICATION_TYPE":"U","MEAN_MOTION":15.21398312,"ECCENTRICITY":0.00020686,"INCLINATION":97.4134,"RA_OF_ASC_NODE":277.3795,"ARG_OF_PERICENTER":82.7522,"MEAN_ANOMALY":277.3949,"EPHEMERIS_TYPE":0,"NORAD_CAT_ID":66768,"ELEMENT_SET_NO":999,"REV_AT_EPOCH":3591,"BSTAR":0.00025368545,"MEAN_MOTION_DOT":0.00005623,"MEAN_MOTION_DDOT":0},{"OBJECT_NAME":"LEMUR-2-LAILA","OBJECT_ID":"2025-276DQ","EPOCH":"2026-07-23T04:42:35.687232","CLASSIFICATION_TYPE":"U","MEAN_MOTION":15.21626275,"ECCENTRICITY":0.00027575,"INCLINATION":97.4157,"RA_OF_ASC_NODE":277.557,"ARG_OF_PERICENTER":82.7172,"MEAN_ANOMALY":277.4378,"EPHEMERIS_TYPE":0,"NORAD_CAT_ID":66776,"ELEMENT_SET_NO":999,"REV_AT_EPOCH":3592,"BSTAR":0.00024906829,"MEAN_MOTION_DOT":0.00005556,"MEAN_MOTION_DDOT":0},{"OBJECT_NAME":"LEMUR-2-CELIJO-SB-PK","OBJECT_ID":"2025-276DW","EPOCH":"2026-07-23T06:07:05.225376","CLASSIFICATION_TYPE":"U","MEAN_MOTION":15.00350636,"ECCENTRICITY":0.00065257,"INCLINATION":97.5182,"RA_OF_ASC_NODE":273.8404,"ARG_OF_PERICENTER":44.8181,"MEAN_ANOMALY":315.3569,"EPHEMERIS_TYPE":0,"NORAD_CAT_ID":66781,"ELEMENT_SET_NO":999,"REV_AT_EPOCH":2803,"BSTAR":0.00050225784,"MEAN_MOTION_DOT":0.00006251,"MEAN_MOTION_DDOT":0},{"OBJECT_NAME":"LEMUR-2-FINNIAN","OBJECT_ID":"2025-276DX","EPOCH":"2026-07-23T03:45:40.833504","CLASSIFICATION_TYPE":"U","MEAN_MOTION":15.00680472,"ECCENTRICITY":0.00069071,"INCLINATION":97.5351,"RA_OF_ASC_NODE":274.0329,"ARG_OF_PERICENTER":328.3462,"MEAN_ANOMALY":31.7346,"EPHEMERIS_TYPE":0,"NORAD_CAT_ID":66782,"ELEMENT_SET_NO":999,"REV_AT_EPOCH":2539,"BSTAR":0.00043099557,"MEAN_MOTION_DOT":0.00005402,"MEAN_MOTION_DDOT":0},{"OBJECT_NAME":"LEMUR-2-STARLIGHT","OBJECT_ID":"2025-276DY","EPOCH":"2026-07-23T03:27:21.811680","CLASSIFICATION_TYPE":"U","MEAN_MOTION":14.99428649,"ECCENTRICITY":0.00144375,"INCLINATION":97.5243,"RA_OF_ASC_NODE":273.5555,"ARG_OF_PERICENTER":23.0438,"MEAN_ANOMALY":337.143,"EPHEMERIS_TYPE":0,"NORAD_CAT_ID":66783,"ELEMENT_SET_NO":999,"REV_AT_EPOCH":3558,"BSTAR":0.00053583152,"MEAN_MOTION_DOT":0.00006524,"MEAN_MOTION_DDOT":0},{"OBJECT_NAME":"LEMUR-2-TARTIFLETTE","OBJECT_ID":"2025-276DZ","EPOCH":"2026-07-23T03:25:11.820288","CLASSIFICATION_TYPE":"U","MEAN_MOTION":14.99409339,"ECCENTRICITY":0.00137297,"INCLINATION":97.5241,"RA_OF_ASC_NODE":273.5617,"ARG_OF_PERICENTER":32.0065,"MEAN_ANOMALY":328.199,"EPHEMERIS_TYPE":0,"NORAD_CAT_ID":66784,"ELEMENT_SET_NO":999,"REV_AT_EPOCH":3558,"BSTAR":0.00051868028,"MEAN_MOTION_DOT":0.00006309,"MEAN_MOTION_DDOT":0},{"OBJECT_NAME":"LEMUR-2-VUKASIN","OBJECT_ID":"2025-276EA","EPOCH":"2026-07-23T04:09:24.516288","CLASSIFICATION_TYPE":"U","MEAN_MOTION":15.0060058,"ECCENTRICITY":0.00018166,"INCLINATION":97.5197,"RA_OF_ASC_NODE":273.9619,"ARG_OF_PERICENTER":23.3545,"MEAN_ANOMALY":336.7761,"EPHEMERIS_TYPE":0,"NORAD_CAT_ID":66785,"ELEMENT_SET_NO":999,"REV_AT_EPOCH":3554,"BSTAR":0.00043062802,"MEAN_MOTION_DOT":0.00005384,"MEAN_MOTION_DDOT":0},{"OBJECT_NAME":"LEMUR-2-HOTSPUR-TOM","OBJECT_ID":"2025-276EB","EPOCH":"2026-07-23T03:17:54.832416","CLASSIFICATION_TYPE":"U","MEAN_MOTION":14.99305596,"ECCENTRICITY":0.00134557,"INCLINATION":97.5217,"RA_OF_ASC_NODE":273.5281,"ARG_OF_PERICENTER":23.8988,"MEAN_ANOMALY":336.2857,"EPHEMERIS_TYPE":0,"NORAD_CAT_ID":66786,"ELEMENT_SET_NO":999,"REV_AT_EPOCH":3551,"BSTAR":0.00053078591,"MEAN_MOTION_DOT":0.00006439,"MEAN_MOTION_DDOT":0}]}
